STARLINK-36372          
1 67889U 26035L   26066.91668981 -.01278092  47499-3 -38728-2 0  9999
2 67889  97.2705 359.1358 0001379  92.8778  79.0973 15.92141390  3479
STARLINK-36363          
1 67890U 26035M   26066.91668981 -.01270020  46916-3 -38604-2 0  9990
2 67890  97.2713 359.1348 0001351  96.7083  71.4332 15.92079723  3476
STARLINK-36816          
1 67891U 26035N   26066.91668981 -.01496635  63764-3 -44878-2 0  9993
2 67891  97.2691 359.1608 0001405 103.9408 132.5637 15.92376025  3363
STARLINK-36813          
1 67892U 26035P   26066.91668981 -.01471024  61686-3 -44371-2 0  9998
2 67892  97.2682 359.1483 0001373  90.6869 116.8461 15.92258172  3476
STARLINK-36803          
1 67893U 26035Q   26066.91668981 -.01330874  51214-3 -40258-2 0  9992
2 67893  97.2703 359.1378 0001348  97.3861  79.8828 15.92182822  3475
STARLINK-36846          
1 67894U 26035R   26066.91668981 -.01435546  58935-3 -43382-2 0  9993
2 67894  97.2698 359.1422 0001454 102.7520  85.2949 15.92216516  3473
STARLINK-36866          
1 67895U 26035S   26066.91668981 -.01436158  58986-3 -43387-2 0  9995
2 67895  97.2696 359.1441 0001363  86.3667 106.5302 15.92222523  3476
STARLINK-36877          
1 67896U 26035T   26066.91668981 -.01414400  57337-3 -42744-2 0  9997
2 67896  97.2700 359.1398 0001384  85.1450  97.6836 15.92213126  3475
STARLINK-36870          
1 67897U 26035U   26066.91668981 -.01453984  60344-3 -43947-2 0  9996
2 67897  97.2692 359.1458 0001388  98.0961 100.1661 15.92215678  3477
STARLINK-36810          
1 67898U 26035V   26066.91668981 -.01465002  61210-3 -44221-2 0  9990
2 67898  97.2691 359.1476 0001425  91.9456 110.8278 15.92243270  3471
STARLINK-36878          
1 67899U 26035W   26066.91668981 -.01472369  61813-3 -44326-2 0  9990
2 67899  97.2690 359.1513 0001452  98.1909 113.5621 15.92295570  3477
STARLINK-36361          
1 67900U 26035X   26066.91668981 -.01480124  62431-3 -44513-2 0  9996
2 67900  97.2688 359.1533 0001477 102.7770 113.7643 15.92316885  3473
