CCSDS_OMM_VERS = 2.0
CREATION_DATE  = 
ORIGINATOR     = 

OBJECT_NAME    = STARLINK-36372
OBJECT_ID      = 2026-035L
CENTER_NAME    = EARTH
REF_FRAME      = TEME
TIME_SYSTEM    = UTC
MEAN_ELEMENT_THEORY = SGP/SGP4

EPOCH          = 2026-03-07T22:00:01.999584
MEAN_MOTION    = 15.92141390
ECCENTRICITY   = .00013796
INCLINATION    = 97.2705
RA_OF_ASC_NODE = 359.1358
ARG_OF_PERICENTER = 92.8778
MEAN_ANOMALY   = 79.0973

EPHEMERIS_TYPE = 0
CLASSIFICATION_TYPE = U
NORAD_CAT_ID   = 67889
ELEMENT_SET_NO = 999
REV_AT_EPOCH   = 347
BSTAR          = -.38728201E-2
MEAN_MOTION_DOT = -.1278092E-1
MEAN_MOTION_DDOT = .47499215E-3

CCSDS_OMM_VERS = 2.0
CREATION_DATE  = 
ORIGINATOR     = 

OBJECT_NAME    = STARLINK-36363
OBJECT_ID      = 2026-035M
CENTER_NAME    = EARTH
REF_FRAME      = TEME
TIME_SYSTEM    = UTC
MEAN_ELEMENT_THEORY = SGP/SGP4

EPOCH          = 2026-03-07T22:00:01.999584
MEAN_MOTION    = 15.92079723
ECCENTRICITY   = .00013518
INCLINATION    = 97.2713
RA_OF_ASC_NODE = 359.1348
ARG_OF_PERICENTER = 96.7083
MEAN_ANOMALY   = 71.4332

EPHEMERIS_TYPE = 0
CLASSIFICATION_TYPE = U
NORAD_CAT_ID   = 67890
ELEMENT_SET_NO = 999
REV_AT_EPOCH   = 347
BSTAR          = -.38603613E-2
MEAN_MOTION_DOT = -.127002E-1
MEAN_MOTION_DDOT = .46916386E-3

CCSDS_OMM_VERS = 2.0
CREATION_DATE  = 
ORIGINATOR     = 

OBJECT_NAME    = STARLINK-36816
OBJECT_ID      = 2026-035N
CENTER_NAME    = EARTH
REF_FRAME      = TEME
TIME_SYSTEM    = UTC
MEAN_ELEMENT_THEORY = SGP/SGP4

EPOCH          = 2026-03-07T22:00:01.999584
MEAN_MOTION    = 15.92376025
ECCENTRICITY   = .00014051
INCLINATION    = 97.2691
RA_OF_ASC_NODE = 359.1608
ARG_OF_PERICENTER = 103.9408
MEAN_ANOMALY   = 132.5637

EPHEMERIS_TYPE = 0
CLASSIFICATION_TYPE = U
NORAD_CAT_ID   = 67891
ELEMENT_SET_NO = 999
REV_AT_EPOCH   = 336
BSTAR          = -.4487809E-2
MEAN_MOTION_DOT = -.1496635E-1
MEAN_MOTION_DDOT = .63764219E-3

CCSDS_OMM_VERS = 2.0
CREATION_DATE  = 
ORIGINATOR     = 

OBJECT_NAME    = STARLINK-36813
OBJECT_ID      = 2026-035P
CENTER_NAME    = EARTH
REF_FRAME      = TEME
TIME_SYSTEM    = UTC
MEAN_ELEMENT_THEORY = SGP/SGP4

EPOCH          = 2026-03-07T22:00:01.999584
MEAN_MOTION    = 15.92258172
ECCENTRICITY   = .00013739
INCLINATION    = 97.2682
RA_OF_ASC_NODE = 359.1483
ARG_OF_PERICENTER = 90.6869
MEAN_ANOMALY   = 116.8461

EPHEMERIS_TYPE = 0
CLASSIFICATION_TYPE = U
NORAD_CAT_ID   = 67892
ELEMENT_SET_NO = 999
REV_AT_EPOCH   = 347
BSTAR          = -.4437059E-2
MEAN_MOTION_DOT = -.1471024E-1
MEAN_MOTION_DDOT = .61685863E-3

CCSDS_OMM_VERS = 2.0
CREATION_DATE  = 
ORIGINATOR     = 

OBJECT_NAME    = STARLINK-36803
OBJECT_ID      = 2026-035Q
CENTER_NAME    = EARTH
REF_FRAME      = TEME
TIME_SYSTEM    = UTC
MEAN_ELEMENT_THEORY = SGP/SGP4

EPOCH          = 2026-03-07T22:00:01.999584
MEAN_MOTION    = 15.92182822
ECCENTRICITY   = .00013485
INCLINATION    = 97.2703
RA_OF_ASC_NODE = 359.1378
ARG_OF_PERICENTER = 97.3861
MEAN_ANOMALY   = 79.8828

EPHEMERIS_TYPE = 0
CLASSIFICATION_TYPE = U
NORAD_CAT_ID   = 67893
ELEMENT_SET_NO = 999
REV_AT_EPOCH   = 347
BSTAR          = -.40257615E-2
MEAN_MOTION_DOT = -.1330874E-1
MEAN_MOTION_DDOT = .51213943E-3

CCSDS_OMM_VERS = 2.0
CREATION_DATE  = 
ORIGINATOR     = 

OBJECT_NAME    = STARLINK-36846
OBJECT_ID      = 2026-035R
CENTER_NAME    = EARTH
REF_FRAME      = TEME
TIME_SYSTEM    = UTC
MEAN_ELEMENT_THEORY = SGP/SGP4

EPOCH          = 2026-03-07T22:00:01.999584
MEAN_MOTION    = 15.92216516
ECCENTRICITY   = .00014542
INCLINATION    = 97.2698
RA_OF_ASC_NODE = 359.1422
ARG_OF_PERICENTER = 102.7520
MEAN_ANOMALY   = 85.2949

EPHEMERIS_TYPE = 0
CLASSIFICATION_TYPE = U
NORAD_CAT_ID   = 67894
ELEMENT_SET_NO = 999
REV_AT_EPOCH   = 347
BSTAR          = -.43381579E-2
MEAN_MOTION_DOT = -.1435546E-1
MEAN_MOTION_DDOT = .58935372E-3

CCSDS_OMM_VERS = 2.0
CREATION_DATE  = 
ORIGINATOR     = 

OBJECT_NAME    = STARLINK-36866
OBJECT_ID      = 2026-035S
CENTER_NAME    = EARTH
REF_FRAME      = TEME
TIME_SYSTEM    = UTC
MEAN_ELEMENT_THEORY = SGP/SGP4

EPOCH          = 2026-03-07T22:00:01.999584
MEAN_MOTION    = 15.92222523
ECCENTRICITY   = .00013635
INCLINATION    = 97.2696
RA_OF_ASC_NODE = 359.1441
ARG_OF_PERICENTER = 86.3667
MEAN_ANOMALY   = 106.5302

EPHEMERIS_TYPE = 0
CLASSIFICATION_TYPE = U
NORAD_CAT_ID   = 67895
ELEMENT_SET_NO = 999
REV_AT_EPOCH   = 347
BSTAR          = -.43387347E-2
MEAN_MOTION_DOT = -.1436158E-1
MEAN_MOTION_DDOT = .58985863E-3

CCSDS_OMM_VERS = 2.0
CREATION_DATE  = 
ORIGINATOR     = 

OBJECT_NAME    = STARLINK-36877
OBJECT_ID      = 2026-035T
CENTER_NAME    = EARTH
REF_FRAME      = TEME
TIME_SYSTEM    = UTC
MEAN_ELEMENT_THEORY = SGP/SGP4

EPOCH          = 2026-03-07T22:00:01.999584
MEAN_MOTION    = 15.92213126
ECCENTRICITY   = .00013842
INCLINATION    = 97.2700
RA_OF_ASC_NODE = 359.1398
ARG_OF_PERICENTER = 85.1450
MEAN_ANOMALY   = 97.6836

EPHEMERIS_TYPE = 0
CLASSIFICATION_TYPE = U
NORAD_CAT_ID   = 67896
ELEMENT_SET_NO = 999
REV_AT_EPOCH   = 347
BSTAR          = -.42743693E-2
MEAN_MOTION_DOT = -.14144E-1
MEAN_MOTION_DDOT = .573373E-3

CCSDS_OMM_VERS = 2.0
CREATION_DATE  = 
ORIGINATOR     = 

OBJECT_NAME    = STARLINK-36870
OBJECT_ID      = 2026-035U
CENTER_NAME    = EARTH
REF_FRAME      = TEME
TIME_SYSTEM    = UTC
MEAN_ELEMENT_THEORY = SGP/SGP4

EPOCH          = 2026-03-07T22:00:01.999584
MEAN_MOTION    = 15.92215678
ECCENTRICITY   = .00013888
INCLINATION    = 97.2692
RA_OF_ASC_NODE = 359.1458
ARG_OF_PERICENTER = 98.0961
MEAN_ANOMALY   = 100.1661

EPHEMERIS_TYPE = 0
CLASSIFICATION_TYPE = U
NORAD_CAT_ID   = 67897
ELEMENT_SET_NO = 999
REV_AT_EPOCH   = 347
BSTAR          = -.43947016E-2
MEAN_MOTION_DOT = -.1453984E-1
MEAN_MOTION_DDOT = .60343682E-3

CCSDS_OMM_VERS = 2.0
CREATION_DATE  = 
ORIGINATOR     = 

OBJECT_NAME    = STARLINK-36810
OBJECT_ID      = 2026-035V
CENTER_NAME    = EARTH
REF_FRAME      = TEME
TIME_SYSTEM    = UTC
MEAN_ELEMENT_THEORY = SGP/SGP4

EPOCH          = 2026-03-07T22:00:01.999584
MEAN_MOTION    = 15.92243270
ECCENTRICITY   = .00014258
INCLINATION    = 97.2691
RA_OF_ASC_NODE = 359.1476
ARG_OF_PERICENTER = 91.9456
MEAN_ANOMALY   = 110.8278

EPHEMERIS_TYPE = 0
CLASSIFICATION_TYPE = U
NORAD_CAT_ID   = 67898
ELEMENT_SET_NO = 999
REV_AT_EPOCH   = 347
BSTAR          = -.44220563E-2
MEAN_MOTION_DOT = -.1465002E-1
MEAN_MOTION_DDOT = .61209994E-3

CCSDS_OMM_VERS = 2.0
CREATION_DATE  = 
ORIGINATOR     = 

OBJECT_NAME    = STARLINK-36878
OBJECT_ID      = 2026-035W
CENTER_NAME    = EARTH
REF_FRAME      = TEME
TIME_SYSTEM    = UTC
MEAN_ELEMENT_THEORY = SGP/SGP4

EPOCH          = 2026-03-07T22:00:01.999584
MEAN_MOTION    = 15.92295570
ECCENTRICITY   = .00014525
INCLINATION    = 97.2690
RA_OF_ASC_NODE = 359.1513
ARG_OF_PERICENTER = 98.1909
MEAN_ANOMALY   = 113.5621

EPHEMERIS_TYPE = 0
CLASSIFICATION_TYPE = U
NORAD_CAT_ID   = 67899
ELEMENT_SET_NO = 999
REV_AT_EPOCH   = 347
BSTAR          = -.44325662E-2
MEAN_MOTION_DOT = -.1472369E-1
MEAN_MOTION_DDOT = .61813279E-3

CCSDS_OMM_VERS = 2.0
CREATION_DATE  = 
ORIGINATOR     = 

OBJECT_NAME    = STARLINK-36361
OBJECT_ID      = 2026-035X
CENTER_NAME    = EARTH
REF_FRAME      = TEME
TIME_SYSTEM    = UTC
MEAN_ELEMENT_THEORY = SGP/SGP4

EPOCH          = 2026-03-07T22:00:01.999584
MEAN_MOTION    = 15.92316885
ECCENTRICITY   = .00014771
INCLINATION    = 97.2688
RA_OF_ASC_NODE = 359.1533
ARG_OF_PERICENTER = 102.7770
MEAN_ANOMALY   = 113.7643

EPHEMERIS_TYPE = 0
CLASSIFICATION_TYPE = U
NORAD_CAT_ID   = 67900
ELEMENT_SET_NO = 999
REV_AT_EPOCH   = 347
BSTAR          = -.44512645E-2
MEAN_MOTION_DOT = -.1480124E-1
MEAN_MOTION_DDOT = .62430675E-3

